LANDSAT 9               
1 49260U 21088A   24063.76361337  .00000576  00000+0  13787-3 0  9997
2 49260  98.1980 135.1217 0001414  98.5634 261.5725 14.57106589129346
